{
  "norad_id": 62578,
  "name": "CENTISPACE-1 S9",
  "history": [
    {
      "epoch": "2026-04-13T05:33:51.912576Z",
      "apogee_km": 968.838222155352,
      "perigee_km": 954.7628643249336,
      "latitude_deg": -2.1647353602902233e-05,
      "longitude_deg": -125.45460923944621,
      "height_km": 958.0252127992653,
      "semi_major_axis_km": 7339.937543240143,
      "eccentricity": 0.00095882,
      "inclination_deg": 54.9811,
      "raan_deg": 159.4373,
      "arg_perigee_deg": 313.0217,
      "mean_anomaly_deg": 46.9935,
      "mean_motion_rev_day": 13.80588385
    },
    {
      "epoch": "2026-04-14T14:34:50.819232Z",
      "apogee_km": 968.9064392640248,
      "perigee_km": 954.6933854269591,
      "latitude_deg": -6.428353354379437e-05,
      "longitude_deg": 93.13348416424662,
      "height_km": 957.7016985102777,
      "semi_major_axis_km": 7339.936912345492,
      "eccentricity": 0.0009682,
      "inclination_deg": 54.9809,
      "raan_deg": 154.6268,
      "arg_perigee_deg": 316.1444,
      "mean_anomaly_deg": 43.8742,
      "mean_motion_rev_day": 13.80588563
    },
    {
      "epoch": "2026-04-15T20:07:18.248160Z",
      "apogee_km": 968.971938141498,
      "perigee_km": 954.6267665344885,
      "latitude_deg": -4.6296071774826166e-05,
      "longitude_deg": 4.501907963936365,
      "height_km": 957.4189821086917,
      "semi_major_axis_km": 7339.936352337993,
      "eccentricity": 0.0009772,
      "inclination_deg": 54.9808,
      "raan_deg": 150.3227,
      "arg_perigee_deg": 318.9183,
      "mean_anomaly_deg": 41.1036,
      "mean_motion_rev_day": 13.80588721
    },
    {
      "epoch": "2026-04-16T15:14:11.287104Z",
      "apogee_km": 969.0082972313903,
      "perigee_km": 954.5897269292591,
      "latitude_deg": -2.681908233533364e-05,
      "longitude_deg": 74.21071327262311,
      "height_km": 957.2471357314537,
      "semi_major_axis_km": 7339.936012080325,
      "eccentricity": 0.0009822,
      "inclination_deg": 54.9808,
      "raan_deg": 147.5375,
      "arg_perigee_deg": 320.6889,
      "mean_anomaly_deg": 39.3353,
      "mean_motion_rev_day": 13.80588817
    },
    {
      "epoch": "2026-04-17T22:30:54.428544Z",
      "apogee_km": 969.0791861767639,
      "perigee_km": 954.5177817675303,
      "latitude_deg": -2.3323566774609853e-05,
      "longitude_deg": -40.810907041519776,
      "height_km": 956.9666426483884,
      "semi_major_axis_km": 7339.935483972146,
      "eccentricity": 0.00099193,
      "inclination_deg": 54.9807,
      "raan_deg": 142.9802,
      "arg_perigee_deg": 323.5682,
      "mean_anomaly_deg": 36.4598,
      "mean_motion_rev_day": 13.80588966
    },
    {
      "epoch": "2026-04-18T19:22:03.182592Z",
      "apogee_km": 969.1198390048694,
      "perigee_km": 954.4766681739593,
      "latitude_deg": 2.137517772957061e-05,
      "longitude_deg": 2.5078700420054805,
      "height_km": 956.7906222395452,
      "semi_major_axis_km": 7339.935253589414,
      "eccentricity": 0.0009975,
      "inclination_deg": 54.9807,
      "raan_deg": 139.9418,
      "arg_perigee_deg": 325.4942,
      "mean_anomaly_deg": 34.5366,
      "mean_motion_rev_day": 13.80589031
    },
    {
      "epoch": "2026-04-19T19:41:43.392768Z",
      "apogee_km": 969.1686901634739,
      "perigee_km": 954.4271648550657,
      "latitude_deg": -3.388617733988188e-05,
      "longitude_deg": -6.953520641368648,
      "height_km": 956.5930713688375,
      "semi_major_axis_km": 7339.93492750927,
      "eccentricity": 0.0010042,
      "inclination_deg": 54.9806,
      "raan_deg": 136.3971,
      "arg_perigee_deg": 327.7053,
      "mean_anomaly_deg": 32.3287,
      "mean_motion_rev_day": 13.80589123
    },
    {
      "epoch": "2026-04-20T13:04:20.683776Z",
      "apogee_km": 969.207511549951,
      "perigee_km": 954.3878897919085,
      "latitude_deg": 4.567954338764037e-05,
      "longitude_deg": 89.14560512097177,
      "height_km": 956.4524437060153,
      "semi_major_axis_km": 7339.9347006709295,
      "eccentricity": 0.00100952,
      "inclination_deg": 54.9805,
      "raan_deg": 133.8652,
      "arg_perigee_deg": 329.293,
      "mean_anomaly_deg": 30.7435,
      "mean_motion_rev_day": 13.80589187
    },
    {
      "epoch": "2026-04-21T20:21:03.802752Z",
      "apogee_km": 969.2811787751043,
      "perigee_km": 954.3135845839834,
      "latitude_deg": 1.065496998681924e-06,
      "longitude_deg": -25.876159875481694,
      "height_km": 956.2068531255044,
      "semi_major_axis_km": 7339.934381679544,
      "eccentricity": 0.0010196,
      "inclination_deg": 54.9804,
      "raan_deg": 129.3077,
      "arg_perigee_deg": 332.1332,
      "mean_anomaly_deg": 27.9077,
      "mean_motion_rev_day": 13.80589277
    },
    {
      "epoch": "2026-04-22T17:12:12.549024Z",
      "apogee_km": 969.3294484907283,
      "perigee_km": 954.2649675222146,
      "latitude_deg": 5.684339137459288e-06,
      "longitude_deg": 17.442619553976986,
      "height_km": 956.0513971835363,
      "semi_major_axis_km": 7339.934208006471,
      "eccentricity": 0.0010262,
      "inclination_deg": 54.9804,
      "raan_deg": 126.2693,
      "arg_perigee_deg": 334.02,
      "mean_anomaly_deg": 26.024,
      "mean_motion_rev_day": 13.80589326
    },
    {
      "epoch": "2026-04-23T12:19:05.568096Z",
      "apogee_km": 969.3739404664457,
      "perigee_km": 954.2202061760299,
      "latitude_deg": 7.054603946373992e-05,
      "longitude_deg": 87.15153640209135,
      "height_km": 955.9139659947848,
      "semi_major_axis_km": 7339.9340733212375,
      "eccentricity": 0.00103228,
      "inclination_deg": 54.9803,
      "raan_deg": 123.4841,
      "arg_perigee_deg": 335.7485,
      "mean_anomaly_deg": 24.2985,
      "mean_motion_rev_day": 13.80589364
    },
    {
      "epoch": "2026-04-24T19:35:48.687072Z",
      "apogee_km": 969.4530072966572,
      "perigee_km": 954.1404375649236,
      "latitude_deg": 6.014249726954136e-06,
      "longitude_deg": -27.870240852662338,
      "height_km": 955.6953545544161,
      "semi_major_axis_km": 7339.93372243079,
      "eccentricity": 0.0010431,
      "inclination_deg": 54.9804,
      "raan_deg": 118.9266,
      "arg_perigee_deg": 338.5548,
      "mean_anomaly_deg": 21.497,
      "mean_motion_rev_day": 13.80589463
    },
    {
      "epoch": "2026-04-25T19:55:28.886016Z",
      "apogee_km": 969.5077445693069,
      "perigee_km": 954.0850764871057,
      "latitude_deg": 1.060611797751598e-05,
      "longitude_deg": -37.331642066319496,
      "height_km": 955.5433146116993,
      "semi_major_axis_km": 7339.933410528206,
      "eccentricity": 0.0010506,
      "inclination_deg": 54.9804,
      "raan_deg": 115.3818,
      "arg_perigee_deg": 340.6944,
      "mean_anomaly_deg": 19.3613,
      "mean_motion_rev_day": 13.80589551
    },
    {
      "epoch": "2026-04-26T21:59:24.799200Z",
      "apogee_km": 969.5601700824336,
      "perigee_km": 954.0313679203691,
      "latitude_deg": 3.2878524071421086e-05,
      "longitude_deg": -73.18307098069569,
      "height_km": 955.3985711952216,
      "semi_major_axis_km": 7339.9327690014015,
      "eccentricity": 0.00105783,
      "inclination_deg": 54.9805,
      "raan_deg": 111.5838,
      "arg_perigee_deg": 342.9099,
      "mean_anomaly_deg": 17.15,
      "mean_motion_rev_day": 13.80589732
    },
    {
      "epoch": "2026-04-27T18:50:33.529056Z",
      "apogee_km": 969.6072478656924,
      "perigee_km": 953.9834678487587,
      "latitude_deg": -2.3802700670930462e-05,
      "longitude_deg": -29.864162862235492,
      "height_km": 955.2821539332125,
      "semi_major_axis_km": 7339.932357857226,
      "eccentricity": 0.0010643,
      "inclination_deg": 54.9806,
      "raan_deg": 108.5455,
      "arg_perigee_deg": 344.7644,
      "mean_anomaly_deg": 15.299,
      "mean_motion_rev_day": 13.80589848
    },
    {
      "epoch": "2026-04-28T17:25:57.979200Z",
      "apogee_km": 969.6568258803572,
      "perigee_km": 953.933223497068,
      "latitude_deg": -8.016923854149173e-05,
      "longitude_deg": -12.935320530775089,
      "height_km": 955.1670501694894,
      "semi_major_axis_km": 7339.932024688712,
      "eccentricity": 0.0010711,
      "inclination_deg": 54.9808,
      "raan_deg": 105.254,
      "arg_perigee_deg": 346.7286,
      "mean_anomaly_deg": 13.3386,
      "mean_motion_rev_day": 13.80589942
    },
    {
      "epoch": "2026-04-29T19:29:53.869920Z",
      "apogee_km": 969.712137457308,
      "perigee_km": 953.8769691242378,
      "latitude_deg": -1.0976621371587216e-05,
      "longitude_deg": -48.78652298107896,
      "height_km": 955.0480720781981,
      "semi_major_axis_km": 7339.931553290772,
      "eccentricity": 0.0010787,
      "inclination_deg": 54.9809,
      "raan_deg": 101.4561,
      "arg_perigee_deg": 348.9203,
      "mean_anomaly_deg": 11.1514,
      "mean_motion_rev_day": 13.80590075
    },
    {
      "epoch": "2026-04-30T11:08:15.401760Z",
      "apogee_km": 969.742346252262,
      "perigee_km": 953.8462570322954,
      "latitude_deg": -1.0275892784773192e-05,
      "longitude_deg": 73.70277751802743,
      "height_km": 954.9847957633508,
      "semi_major_axis_km": 7339.931301642278,
      "eccentricity": 0.00108285,
      "inclination_deg": 54.981,
      "raan_deg": 99.1774,
      "arg_perigee_deg": 350.232,
      "mean_anomaly_deg": 9.8424,
      "mean_motion_rev_day": 13.80590146
    },
    {
      "epoch": "2026-05-02T10:03:20.004192Z",
      "apogee_km": 969.8644988436654,
      "perigee_km": 953.7225236633167,
      "latitude_deg": -3.2064815884646956e-05,
      "longitude_deg": 81.17063146251185,
      "height_km": 954.782472299071,
      "semi_major_axis_km": 7339.93051125349,
      "eccentricity": 0.0010996,
      "inclination_deg": 54.9813,
      "raan_deg": 92.3413,
      "arg_perigee_deg": 354.4827,
      "mean_anomaly_deg": 5.6006,
      "mean_motion_rev_day": 13.80590369
    }
  ]
}